[
    {
        "Altitude(m)": 706555.6403931159,
        "Argument of Periapsis(deg)": 0.011390121186627068,
        "Eccentricity": 0.0,
        "Inclination(deg)": 45.0,
        "Latitude(deg)": -14.940548867952415,
        "Longitude(deg)": 28.835161420876364,
        "Mean Anomaly(deg)": -21.19408335251916,
        "RAAN(deg)": 144.98924805854182,
        "Satellite Name": "Constellation 1 658",
        "Satellite Number": 658,
        "Semi-Major Axis(m)": 7083131.272910544,
        "Time(s)": 190
    },
    {
        "Altitude(m)": 706543.8480292562,
        "Argument of Periapsis(deg)": 0.011450069192872472,
        "Eccentricity": 0.0,
        "Inclination(deg)": 45.0,
        "Latitude(deg)": -14.898935361706341,
        "Longitude(deg)": 28.876899012980285,
        "Mean Anomaly(deg)": -21.133382212269275,
        "RAAN(deg)": 144.98919146937624,
        "Satellite Name": "Constellation 1 658",
        "Satellite Number": 658,
        "Semi-Major Axis(m)": 7083131.272910544,
        "Time(s)": 191
    },
    {
        "Altitude(m)": 706532.0687067417,
        "Argument of Periapsis(deg)": 0.01151001719911788,
        "Eccentricity": 0.0,
        "Inclination(deg)": 45.0,
        "Latitude(deg)": -14.857312444262513,
        "Longitude(deg)": 28.91861911394316,
        "Mean Anomaly(deg)": -21.072681072019414,
        "RAAN(deg)": 144.98913488021068,
        "Satellite Name": "Constellation 1 658",
        "Satellite Number": 658,
        "Semi-Major Axis(m)": 7083131.272910544,
        "Time(s)": 192
    },
    {
        "Altitude(m)": 706520.3024611197,
        "Argument of Periapsis(deg)": 0.011569965205363285,
        "Eccentricity": 0.0,
        "Inclination(deg)": 45.0,
        "Latitude(deg)": -14.815680146170967,
        "Longitude(deg)": 28.96032160977775,
        "Mean Anomaly(deg)": -21.011979931769478,
        "RAAN(deg)": 144.98907829104513,
        "Satellite Name": "Constellation 1 658",
        "Satellite Number": 658,
        "Semi-Major Axis(m)": 7083131.272910544,
        "Time(s)": 193
    },
    {
        "Altitude(m)": 706508.5493278631,
        "Argument of Periapsis(deg)": 0.01162991321160869,
        "Eccentricity": 0.0,
        "Inclination(deg)": 45.0,
        "Latitude(deg)": -14.774038497947478,
        "Longitude(deg)": 29.002006890758313,
        "Mean Anomaly(deg)": -20.95127879151959,
        "RAAN(deg)": 144.98902170187952,
        "Satellite Name": "Constellation 1 658",
        "Satellite Number": 658,
        "Semi-Major Axis(m)": 7083131.272910544,
        "Time(s)": 194
    },
    {
        "Altitude(m)": 706496.8093423989,
        "Argument of Periapsis(deg)": 0.011689861217854095,
        "Eccentricity": 0.0,
        "Inclination(deg)": 45.0,
        "Latitude(deg)": -14.732387530074943,
        "Longitude(deg)": 29.043674842838616,
        "Mean Anomaly(deg)": -20.890577651269755,
        "RAAN(deg)": 144.98896511271397,
        "Satellite Name": "Constellation 1 658",
        "Satellite Number": 658,
        "Semi-Major Axis(m)": 7083131.272910544,
        "Time(s)": 195
    },
    {
        "Altitude(m)": 706485.0825400744,
        "Argument of Periapsis(deg)": 0.0117498092240995,
        "Eccentricity": 0.0,
        "Inclination(deg)": 45.0,
        "Latitude(deg)": -14.690727273002594,
        "Longitude(deg)": 29.0853255200401,
        "Mean Anomaly(deg)": -20.829876511019766,
        "RAAN(deg)": 144.9889085235484,
        "Satellite Name": "Constellation 1 658",
        "Satellite Number": 658,
        "Semi-Major Axis(m)": 7083131.272910544,
        "Time(s)": 196
    },
    {
        "Altitude(m)": 706473.3689561719,
        "Argument of Periapsis(deg)": 0.011809757230344905,
        "Eccentricity": 0.0,
        "Inclination(deg)": 45.0,
        "Latitude(deg)": -14.649057757146629,
        "Longitude(deg)": 29.126958976354604,
        "Mean Anomaly(deg)": -20.769175370769933,
        "RAAN(deg)": 144.98885193438284,
        "Satellite Name": "Constellation 1 658",
        "Satellite Number": 658,
        "Semi-Major Axis(m)": 7083131.272910544,
        "Time(s)": 197
    },
    {
        "Altitude(m)": 706461.6686259147,
        "Argument of Periapsis(deg)": 0.011869705236590313,
        "Eccentricity": 0.0,
        "Inclination(deg)": 45.0,
        "Latitude(deg)": -14.60737901288971,
        "Longitude(deg)": 29.168575265744867,
        "Mean Anomaly(deg)": -20.70847423051997,
        "RAAN(deg)": 144.98879534521726,
        "Satellite Name": "Constellation 1 658",
        "Satellite Number": 658,
        "Semi-Major Axis(m)": 7083131.272910544,
        "Time(s)": 198
    },
    {
        "Altitude(m)": 706449.981584451,
        "Argument of Periapsis(deg)": 0.011929653242835719,
        "Eccentricity": 0.0,
        "Inclination(deg)": 45.0,
        "Latitude(deg)": -14.565691070581716,
        "Longitude(deg)": 29.21017444214396,
        "Mean Anomaly(deg)": -20.647773090270107,
        "RAAN(deg)": 144.98873875605167,
        "Satellite Name": "Constellation 1 658",
        "Satellite Number": 658,
        "Semi-Major Axis(m)": 7083131.272910544,
        "Time(s)": 199
    }
]